[{"OBJECT_NAME":"GONETS-M 20","OBJECT_ID":"2020-091A","EPOCH":"2026-03-09T21:56:59.863200","MEAN_MOTION":12.42889799,"ECCENTRICITY":0.002195,"INCLINATION":82.5101,"RA_OF_ASC_NODE":4.142,"ARG_OF_PERICENTER":38.5567,"MEAN_ANOMALY":321.7076,"EPHEMERIS_TYPE":0,"CLASSIFICATION_TYPE":"U","NORAD_CAT_ID":47227,"ELEMENT_SET_NO":999,"REV_AT_EPOCH":23874,"BSTAR":2.3075843e-5,"MEAN_MOTION_DOT":1.3e-7,"MEAN_MOTION_DDOT":0},{"OBJECT_NAME":"SL-14 R\/B","OBJECT_ID":"1982-096B","EPOCH":"2026-03-09T17:10:42.627360","MEAN_MOTION":12.42685485,"ECCENTRICITY":0.00067195,"INCLINATION":82.614,"RA_OF_ASC_NODE":165.3577,"ARG_OF_PERICENTER":157.7187,"MEAN_ANOMALY":317.9254,"EPHEMERIS_TYPE":0,"CLASSIFICATION_TYPE":"U","NORAD_CAT_ID":13590,"ELEMENT_SET_NO":999,"REV_AT_EPOCH":97118,"BSTAR":0.00012137261,"MEAN_MOTION_DOT":2.7e-7,"MEAN_MOTION_DDOT":0}]
